PROMETHEUS 2-1          
1 41854U 16067G   23302.88703501  .00016890  00000+0  10730-2 0  9990
2 41854  98.0832  99.2117 0016159 121.2422 239.0391 15.08821839380776
PROMETHEUS 2-3          
1 41855U 16067H   23302.88161797  .00016520  00000+0  10512-2 0  9994
2 41855  98.0753  98.9252 0013694 130.5274 229.7148 15.08799486380772
DIDO-2                  
1 42000U 17008BE  23302.67601299  .00037152  00000+0  73071-3 0  9990
2 42000  97.1848 357.0914 0003578 258.1710 101.9140 15.47173907372676
PEASSS                  
1 42015U 17008BV  23302.73931361  .00333822  00000+0  16471-2 0  9992
2 42015  97.1821   8.4808 0003843 239.3606 120.7284 15.81216578373862
UCLSAT                  
1 42765U 17036A   23302.85276875  .00513700  00000+0  19739-2 0  9995
2 42765  97.1155 342.9808 0001945 257.5220 102.5834 15.86116175354916
AALTO-1                 
1 42775U 17036L   23302.65304881  .00037522  00000+0  87490-3 0  9996
2 42775  97.1385 329.2643 0007666 353.9847   6.1307 15.42117153353191
URSA MAIOR              
1 42776U 17036M   23302.82462827  .00048322  00000+0  10082-2 0  9993
2 42776  97.1388 331.2735 0006744 347.9723  12.1365 15.45374331353324
DIAMOND RED             
1 42783U 17036U   23302.84657403  .00061498  00000+0  10648-2 0  9996
2 42783  97.1337 335.3378 0005003 354.8040   5.3160 15.50707695353584
PEGASUS                 
1 42784U 17036V   23302.86006295  .00152086  00000+0  14328-2 0  9999
2 42784  97.1271 339.9660 0002167 318.5880  41.5216 15.66597302353902
DIAMOND GREEN           
1 42785U 17036W   23302.64578826  .00072225  00000+0  11414-2 0  9999
2 42785  97.1308 335.6345 0004478 353.9735   6.1465 15.53227893353652
DIAMOND BLUE            
1 42786U 17036X   23302.61139343  .00067215  00000+0  11249-2 0  9993
2 42786  97.1336 335.3950 0004545 350.4658   9.6508 15.51645365353634
SKCUBE                  
1 42789U 17036AA  23302.84437395  .00617522  15237-3  19603-2 0  9995
2 42789  97.1129 343.9286 0002615 247.2312 112.8686 15.91194068354166
CICERO 6                
1 42793U 17036AE  23302.82888669  .00054258  00000+0  10617-2 0  9997
2 42793  97.1321 334.9520 0004791 356.4831   3.6385 15.47233241353656
CORVUS BC2              
1 42846U 17042X   23302.85126325  .00003745  00000+0  34181-3 0  9998
2 42846  97.3767 136.1802 0009913 114.1293 246.0966 14.95594222342846
CORVUS BC1              
1 42847U 17042Y   23302.49921893  .00005443  00000+0  49304-3 0  9992
2 42847  97.3762 136.2167 0010053 113.9331 246.2945 14.95713247342809
MIRATA                  
1 43015U 17073C   23302.91757251  .00023997  00000+0  13937-2 0  9992
2 43015  97.6135 186.9637 0197413 324.6694  34.1575 14.97087901321619
MAKERSAT 0              
1 43016U 17073D   23302.92350023  .00019605  00000+0  12513-2 0  9990
2 43016  97.6091 184.0626 0216119 337.2710  21.9047 14.91391679321377
CORVUS BC3              
1 43118U 18004H   23302.74478235  .00050194  00000+0  10000-2 0  9991
2 43118  97.3146  17.5096 0005870  23.4918 336.6599 15.46723269322771
CICERO 7                
1 43143U 18004AJ  23302.23215586  .00597160  14263-3  18681-2 0  9993
2 43143  97.3058  34.4803 0005153 291.4888  68.5836 15.91460043323743
GOMX-4B                 
1 43196U 18015E   23302.93661967  .00034668  00000+0  79874-3 0  9999
2 43196  97.5927  98.4945 0012675  81.8915 278.3769 15.42441711319674
GOMX-4A                 
1 43197U 18015F   23302.93915561  .00040847  00000+0  81379-3 0  9991
2 43197  97.5911 101.3747 0011828  74.6817 285.5739 15.46712937319876
CUBEBEL-1 (BSUSAT-1)    
1 43666U 18083E   23302.92688725  .00090679  00000+0  15282-2 0  9992
2 43666  97.3638 336.2776 0006134   6.5515 353.5816 15.51346901277982
CICERO 10               
1 43690U 18088A   23302.59339156  .00039386  00000+0  87102-3 0  9997
2 43690  85.0281 341.2314 0011609  92.8593 267.3989 15.43582313276159
PROXIMA I               
1 43694U 18088E   23302.88863278  .00054399  00000+0  10143-2 0  9991
2 43694  85.0194 336.0509 0011581  57.9069 302.3310 15.48524534276551
PROXIMA II              
1 43696U 18088G   23302.59372664  .00052730  00000+0  99217-3 0  9992
2 43696  85.0202 336.3334 0011760  58.6762 301.5643 15.48266111276496
SIRION PATHFINDER-2     
1 43759U 18099B   23302.74002711  .00005533  00000+0  44976-3 0  9995
2 43759  97.5582   0.5660 0014200  20.1020 340.0760 14.99895780267785
CORVUS BC4              
1 43767U 18099K   23302.88481707  .00006281  00000+0  51710-3 0  9990
2 43767  97.5491 358.4509 0010108  31.4603 328.7223 14.99393210267705
MOVE-II                 
1 43780U 18099Y   23302.91957927  .00018975  00000+0  12624-2 0  9994
2 43780  97.5569   4.2688 0008984  58.8787 301.3321 15.07157870268005
SPACEBEE-7              
1 43816U 18099BL  23302.90580695  .00014233  00000+0  10014-2 0  9991
2 43816  97.5839   5.2106 0011321   9.0309 351.1119 15.05121108267558
SPACEBEE-5              
1 43817U 18099BM  23302.89651644  .00107635  00000+0  34085-2 0  9996
2 43817  97.5764  16.3505 0003374 311.4372  48.6579 15.32300595268201
SPACEBEE-6              
1 43818U 18099BN  23302.87778774  .00024733  00000+0  15037-2 0  9992
2 43818  97.5730   7.9504 0010799  19.6489 340.5154 15.10395797267863
SHIELDS 1               
1 43850U 18104B   23302.84337404  .00015645  00000+0  51754-3 0  9992
2 43850  85.0243  79.2545 0011360 210.1676 149.8918 15.31153424270693
STF-1                   
1 43852U 18104D   23302.88032145  .00111853  00000+0  15330-2 0  9999
2 43852  85.0168  74.2810 0007378 213.1087 146.9713 15.56959607271241
ZACUBE-2                
1 43907U 18111AH  23302.93340758  .00066550  00000+0  11385-2 0  9995
2 43907  97.1103 179.9912 0015231  82.2216 278.0765 15.50910187269950
LUME 1                  
1 43908U 18111AJ  23302.93289904  .00108143  00000+0  12568-2 0  9990
2 43908  97.1105 185.1532 0012496  71.4439 288.8176 15.61291624270291
MOVE-IIB                
1 44398U 19038N   23302.95766103  .00300470  00000+0  24598-2 0  9999
2 44398  97.6651 294.4191 0013407 133.7554 226.4819 15.69511921239553
SONATE                  
1 44400U 19038Q   23302.93439162  .00016269  00000+0  65447-3 0  9992
2 44400  97.6986 283.7752 0018336 193.9507 166.1225 15.24828675238743
LUCKY-7                 
1 44406U 19038W   23302.91348253  .00027336  00000+0  96477-3 0  9990
2 44406  97.6938 285.6757 0016753 183.7024 176.4094 15.29075916238873
BEESAT 9                
1 44412U 19038AC  23302.93064628  .00052504  00000+0  13436-2 0  9998
2 44412  97.6844 288.8766 0013194 167.7535 192.4033 15.39156305238814
JAISAT-1                
1 44419U 19038F   23302.92355164  .00052413  00000+0  13356-2 0  9992
2 44419  97.6829 289.9929 0012851 163.7702 196.3957 15.39291380239191
DUCHIFAT-3              
1 44854U 19089C   23302.53251206  .00014721  00000+0  91283-3 0  9996
2 44854  36.9620   6.8438 0006854 340.9834  19.0654 15.09103891213183
EYESAT-NANO             
1 44877U 19092E   23302.52015677  .00528547  00000+0  29044-2 0  9995
2 44877  97.4388 138.1897 0004593 334.1270  25.9766 15.78315614214956
M2 PATHFINDER           
1 45727U 20037E   23302.43880108  .00006255  00000+0  57535-3 0  9994
2 45727  97.7642 115.6498 0011981 170.5411 189.6038 14.95070598181299
NETSAT-4                
1 46504U 20068U   23302.82780489  .00011746  00000+0  72880-3 0  9997
2 46504  97.7768 250.1849 0012950  74.9597 285.3064 15.09808426169201
NETSAT-3                
1 46505U 20068V   23302.81458527  .00011969  00000+0  74858-3 0  9996
2 46505  97.7745 249.9113 0012022  81.7003 278.5588 15.09521393169205
NETSAT-1                
1 46506U 20068W   23302.82961833  .00008806  00000+0  56176-3 0  9996
2 46506  97.7761 249.7379 0010514  90.0630 270.1803 15.08899841169190
NETSAT-2                
1 46507U 20068X   23302.83208223  .00011264  00000+0  70096-3 0  9994
2 46507  97.7756 249.8966 0010042  95.1313 265.1061 15.09737886169155
SAI-1 NANOCONNECT-2     
1 47701U 21015C   23302.49833864  .00410888  00000+0  19995-2 0  9996
2 47701  97.3679  30.9174 0001560 280.4360  79.6732 15.81323722149081
WILDTRACKCUBE-SIMBA     
1 47941U 21022K   23302.91799747  .00012969  00000+0  69798-3 0  9993
2 47941  97.4804 197.6229 0016127 226.5835 133.4055 15.14860920143389
BEESAT-6                
1 47957U 21022AB  23301.69362592  .00043015  00000+0  16405-2 0  9990
2 47957  97.4772 199.9510 0011540 211.0616 148.9942 15.26488136143247
SMOG-1                  
1 47964U 21022AJ  23302.70881104  .00045326  00000+0  16270-2 0  9993
2 47964  97.4825 203.4658 0011158 188.6397 171.4652 15.28480340142562
BCCSAT-1                
1 48041U 21022AK  23302.71540972  .00037014  00000+0  14791-2 0  9997
2 48041  97.4822 201.8306 0009419 190.5573 169.5469 15.24986747142431
BEESAT-5                
1 48083U 21022AM  23302.94603636  .00055260  00000+0  19519-2 0  9991
2 48083  97.4635 201.5990 0011056 200.0063 160.0745 15.28956964142611
BEESAT-7                
1 48084U 21022AN  23302.68306023  .00051545  00000+0  19100-2 0  9991
2 48084  97.4761 201.1868 0011333 204.6022 155.4677 15.27398103142138
BEESAT-8                
1 48085U 21022AP  23302.67146387  .00022632  00000+0  10534-2 0  9993
2 48085  97.4847 199.7338 0014250 217.7179 142.3058 15.19850295142580
LEDSAT                  
1 49069U 21073D   23302.68729572  .00016621  00000+0  83467-3 0  9993
2 49069  97.4691  11.4304 0022721  17.2389 342.9610 15.17133230121277
